{"type": "Feature", "properties": {"hash": "acd936f166685f85", "number": "2369", "street": "PALISADES CREST DR", "unit": "", "city": "LAKE OSWEGO", "district": "", "region": "", "postcode": "97034", "id": ""}, "geometry": {"type": "Point", "coordinates": [-122.7001455, 45.3966246]}}
{"type": "Feature", "properties": {"hash": "6c6c7226dbe45d95", "number": "2371", "street": "PALISADES CREST DR", "unit": "", "city": "LAKE OSWEGO", "district": "", "region": "", "postcode": "97034", "id": ""}, "geometry": {"type": "Point", "coordinates": [-122.7006306, 45.3966097]}}
{"type": "Feature", "properties": {"hash": "a0bf805c45c84896", "number": "2383", "street": "PALISADES CREST DR", "unit": "", "city": "LAKE OSWEGO", "district": "", "region": "", "postcode": "97034", "id": ""}, "geometry": {"type": "Point", "coordinates": [-122.7010401, 45.3964751]}}
{"type": "Feature", "properties": {"hash": "97700f3a080ac6c7", "number": "17902", "street": "MEADOWLARK LN", "unit": "", "city": "LAKE OSWEGO", "district": "", "region": "", "postcode": "97034", "id": ""}, "geometry": {"type": "Point", "coordinates": [-122.696841, 45.396582]}}
{"type": "Feature", "properties": {"hash": "e69f70246b513f7a", "number": "2365", "street": "PALISADES CREST DR", "unit": "", "city": "LAKE OSWEGO", "district": "", "region": "", "postcode": "97034", "id": ""}, "geometry": {"type": "Point", "coordinates": [-122.6995422, 45.3965447]}}
{"type": "Feature", "properties": {"hash": "e3aa3a7e1a865811", "number": "1281", "street": "OVERLOOK DR", "unit": "", "city": "LAKE OSWEGO", "district": "", "region": "", "postcode": "97034", "id": ""}, "geometry": {"type": "Point", "coordinates": [-122.6964991, 45.3966121]}}
{"type": "Feature", "properties": {"hash": "6ea1029593f5831c", "number": "1271", "street": "OVERLOOK DR", "unit": "", "city": "LAKE OSWEGO", "district": "", "region": "", "postcode": "97034", "id": ""}, "geometry": {"type": "Point", "coordinates": [-122.6956599, 45.396279]}}
{"type": "Feature", "properties": {"hash": "0519261593d2c0ba", "number": "", "street": "NO SITUS", "unit": "", "city": "ADDRESS", "district": "", "region": "", "postcode": "0", "id": ""}, "geometry": {"type": "Point", "coordinates": [-122.6953587, 45.3957566]}}
{"type": "Feature", "properties": {"hash": "941724aeced47ae3", "number": "", "street": "NO SITUS", "unit": "", "city": "ADDRESS", "district": "", "region": "", "postcode": "0", "id": ""}, "geometry": {"type": "Point", "coordinates": [-122.692559, 45.3958244]}}
{"type": "Feature", "properties": {"hash": "198cde4a2389734d", "number": "17903", "street": "RIDGE LAKE DR", "unit": "", "city": "LAKE OSWEGO", "district": "", "region": "", "postcode": "97034", "id": ""}, "geometry": {"type": "Point", "coordinates": [-122.694756, 45.3966557]}}
{"type": "Feature", "properties": {"hash": "4fe8efe9df134fca", "number": "17898", "street": "HILLSIDE DR", "unit": "", "city": "LAKE OSWEGO", "district": "", "region": "", "postcode": "97034", "id": ""}, "geometry": {"type": "Point", "coordinates": [-122.7015091, 45.3963265]}}
{"type": "Feature", "properties": {"hash": "d12ebe487c810454", "number": "17800", "street": "STAFFORD RD", "unit": "", "city": "LAKE OSWEGO", "district": "", "region": "", "postcode": "97034", "id": ""}, "geometry": {"type": "Point", "coordinates": [-122.6869327, 45.3966]}}
{"type": "Feature", "properties": {"hash": "c6dc77132d00b5fb", "number": "2357", "street": "PALISADES CREST DR", "unit": "", "city": "LAKE OSWEGO", "district": "", "region": "", "postcode": "97034", "id": ""}, "geometry": {"type": "Point", "coordinates": [-122.6990635, 45.396416]}}
{"type": "Feature", "properties": {"hash": "c07fd671d488d89f", "number": "1200", "street": "OVERLOOK DR", "unit": "", "city": "LAKE OSWEGO", "district": "", "region": "", "postcode": "97034", "id": ""}, "geometry": {"type": "Point", "coordinates": [-122.6905868, 45.3965645]}}
{"type": "Feature", "properties": {"hash": "fbf427520d16e76c", "number": "17911", "street": "MEADOWLARK LN", "unit": "", "city": "LAKE OSWEGO", "district": "", "region": "", "postcode": "97034", "id": ""}, "geometry": {"type": "Point", "coordinates": [-122.6976712, 45.3964243]}}
{"type": "Feature", "properties": {"hash": "f37182ecec86d5b0", "number": "17901", "street": "STAFFORD RD", "unit": "", "city": "LAKE OSWEGO", "district": "", "region": "", "postcode": "97034", "id": ""}, "geometry": {"type": "Point", "coordinates": [-122.6889801, 45.3965286]}}
{"type": "Feature", "properties": {"hash": "d26275a34b233487", "number": "125", "street": "S ROSEMONT RD", "unit": "", "city": "WEST LINN", "district": "", "region": "", "postcode": "97068", "id": ""}, "geometry": {"type": "Point", "coordinates": [-122.6874286, 45.3940327]}}
{"type": "Feature", "properties": {"hash": "676c526fc6996377", "number": "", "street": "NO SITUS", "unit": "", "city": "ADDRESS", "district": "", "region": "", "postcode": "0", "id": ""}, "geometry": {"type": "Point", "coordinates": [-122.6864395, 45.3971933]}}
{"type": "Feature", "properties": {"hash": "e30c2d2441d3e0a0", "number": "2357", "street": "HILLSIDE LN", "unit": "", "city": "LAKE OSWEGO", "district": "", "region": "", "postcode": "97034", "id": ""}, "geometry": {"type": "Point", "coordinates": [-122.6994787, 45.3974291]}}
{"type": "Feature", "properties": {"hash": "a422dff08e940980", "number": "17835", "street": "HILLSIDE DR", "unit": "", "city": "LAKE OSWEGO", "district": "", "region": "", "postcode": "97034", "id": ""}, "geometry": {"type": "Point", "coordinates": [-122.7011869, 45.3973727]}}
{"type": "Feature", "properties": {"hash": "9fc1904c0de80108", "number": "2337", "street": "HILLSIDE LN", "unit": "", "city": "LAKE OSWEGO", "district": "", "region": "", "postcode": "97034", "id": ""}, "geometry": {"type": "Point", "coordinates": [-122.6989879, 45.3974165]}}
{"type": "Feature", "properties": {"hash": "350cefdff628d653", "number": "17784", "street": "TREE TOP LN", "unit": "", "city": "LAKE OSWEGO", "district": "", "region": "", "postcode": "97034", "id": ""}, "geometry": {"type": "Point", "coordinates": [-122.6968222, 45.3974304]}}
{"type": "Feature", "properties": {"hash": "cc4022724ba103ce", "number": "2301", "street": "HILLSIDE LN", "unit": "", "city": "LAKE OSWEGO", "district": "", "region": "", "postcode": "97034", "id": ""}, "geometry": {"type": "Point", "coordinates": [-122.6986352, 45.3972624]}}
{"type": "Feature", "properties": {"hash": "4a35f38e324742e6", "number": "17837", "street": "HILLSIDE DR", "unit": "", "city": "LAKE OSWEGO", "district": "", "region": "", "postcode": "97034", "id": ""}, "geometry": {"type": "Point", "coordinates": [-122.70159, 45.397247]}}
{"type": "Feature", "properties": {"hash": "4c075e18ea81feb7", "number": "2210", "street": "OVERLOOK DR", "unit": "", "city": "LAKE OSWEGO", "district": "", "region": "", "postcode": "97034", "id": ""}, "geometry": {"type": "Point", "coordinates": [-122.6981085, 45.3972365]}}
{"type": "Feature", "properties": {"hash": "484832173d0d6b74", "number": "17841", "street": "HILLSIDE DR", "unit": "", "city": "LAKE OSWEGO", "district": "", "region": "", "postcode": "97034", "id": ""}, "geometry": {"type": "Point", "coordinates": [-122.7019467, 45.3971365]}}
{"type": "Feature", "properties": {"hash": "423076db54700fd0", "number": "17846", "street": "HILLSIDE DR", "unit": "", "city": "LAKE OSWEGO", "district": "", "region": "", "postcode": "97034", "id": ""}, "geometry": {"type": "Point", "coordinates": [-122.7008405, 45.3969852]}}
{"type": "Feature", "properties": {"hash": "afbb79ad610792cf", "number": "2398", "street": "HILLSIDE LN", "unit": "", "city": "LAKE OSWEGO", "district": "", "region": "", "postcode": "97034", "id": ""}, "geometry": {"type": "Point", "coordinates": [-122.7004113, 45.3970124]}}
{"type": "Feature", "properties": {"hash": "346958c63484dfc7", "number": "17802", "street": "TREE TOP LN", "unit": "", "city": "LAKE OSWEGO", "district": "", "region": "", "postcode": "97034", "id": ""}, "geometry": {"type": "Point", "coordinates": [-122.6968249, 45.3971025]}}
{"type": "Feature", "properties": {"hash": "676c526fc6996377", "number": "", "street": "NO SITUS", "unit": "", "city": "ADDRESS", "district": "", "region": "", "postcode": "0", "id": ""}, "geometry": {"type": "Point", "coordinates": [-122.6864395, 45.3971933]}}
{"type": "Feature", "properties": {"hash": "a9f302f699f0d4a6", "number": "2378", "street": "HILLSIDE LN", "unit": "", "city": "LAKE OSWEGO", "district": "", "region": "", "postcode": "97034", "id": ""}, "geometry": {"type": "Point", "coordinates": [-122.6999749, 45.3970088]}}
{"type": "Feature", "properties": {"hash": "681007ac4581976c", "number": "2358", "street": "HILLSIDE LN", "unit": "", "city": "LAKE OSWEGO", "district": "", "region": "", "postcode": "97034", "id": ""}, "geometry": {"type": "Point", "coordinates": [-122.6995647, 45.3969964]}}
{"type": "Feature", "properties": {"hash": "e597680def22cb02", "number": "2401", "street": "MAYORS LN", "unit": "", "city": "LAKE OSWEGO", "district": "", "region": "", "postcode": "97034", "id": ""}, "geometry": {"type": "Point", "coordinates": [-122.7012246, 45.3970087]}}
{"type": "Feature", "properties": {"hash": "99ba0c056de09bda", "number": "2338", "street": "HILLSIDE LN", "unit": "", "city": "LAKE OSWEGO", "district": "", "region": "", "postcode": "97034", "id": ""}, "geometry": {"type": "Point", "coordinates": [-122.6991527, 45.3969511]}}
{"type": "Feature", "properties": {"hash": "4921178c85719332", "number": "", "street": "NO SITUS", "unit": "", "city": "ADDRESS", "district": "", "region": "", "postcode": "0", "id": ""}, "geometry": {"type": "Point", "coordinates": [-122.698689, 45.3970033]}}
{"type": "Feature", "properties": {"hash": "0c5bff8377838e82", "number": "17878", "street": "HILLSIDE DR", "unit": "", "city": "LAKE OSWEGO", "district": "", "region": "", "postcode": "97034", "id": ""}, "geometry": {"type": "Point", "coordinates": [-122.7015493, 45.3969461]}}
{"type": "Feature", "properties": {"hash": "553ccbc12d21197c", "number": "17878", "street": "HILLSIDE DR", "unit": "", "city": "LAKE OSWEGO", "district": "", "region": "", "postcode": "97034", "id": ""}, "geometry": {"type": "Point", "coordinates": [-122.7016308, 45.3966833]}}
{"type": "Feature", "properties": {"hash": "c1df29afd13b16ea", "number": "2401", "street": "MAYORS LN", "unit": "", "city": "LAKE OSWEGO", "district": "", "region": "", "postcode": "97034", "id": ""}, "geometry": {"type": "Point", "coordinates": [-122.7012614, 45.3967127]}}
{"type": "Feature", "properties": {"hash": "0a84fda83ad21699", "number": "17846", "street": "HILLSIDE DR", "unit": "", "city": "LAKE OSWEGO", "district": "", "region": "", "postcode": "97034", "id": ""}, "geometry": {"type": "Point", "coordinates": [-122.7007915, 45.3968478]}}
{"type": "Feature", "properties": {"hash": "98299e98ac895477", "number": "2398", "street": "HILLSIDE LN", "unit": "", "city": "LAKE OSWEGO", "district": "", "region": "", "postcode": "97034", "id": ""}, "geometry": {"type": "Point", "coordinates": [-122.700488, 45.3968296]}}
{"type": "Feature", "properties": {"hash": "4e95ce7a4e4cbded", "number": "2378", "street": "HILLSIDE LN", "unit": "", "city": "LAKE OSWEGO", "district": "", "region": "", "postcode": "97034", "id": ""}, "geometry": {"type": "Point", "coordinates": [-122.6998831, 45.3968208]}}
{"type": "Feature", "properties": {"hash": "5e75111f25217cf9", "number": "2358", "street": "HILLSIDE LN", "unit": "", "city": "LAKE OSWEGO", "district": "", "region": "", "postcode": "97034", "id": ""}, "geometry": {"type": "Point", "coordinates": [-122.6995785, 45.396837]}}
{"type": "Feature", "properties": {"hash": "9a6300688e113d57", "number": "2338", "street": "HILLSIDE LN", "unit": "", "city": "LAKE OSWEGO", "district": "", "region": "", "postcode": "97034", "id": ""}, "geometry": {"type": "Point", "coordinates": [-122.6991304, 45.3968073]}}
{"type": "Feature", "properties": {"hash": "f2e21751a33e4b03", "number": "2318", "street": "HILLSIDE LN", "unit": "", "city": "LAKE OSWEGO", "district": "", "region": "", "postcode": "97034", "id": ""}, "geometry": {"type": "Point", "coordinates": [-122.6987202, 45.3967948]}}
{"type": "Feature", "properties": {"hash": "88aedc4ff9183e91", "number": "2306", "street": "MAYORS LN", "unit": "", "city": "LAKE OSWEGO", "district": "", "region": "", "postcode": "97034", "id": ""}, "geometry": {"type": "Point", "coordinates": [-122.698531, 45.3965445]}}
{"type": "Feature", "properties": {"hash": "400f31c3c5c14eae", "number": "17901", "street": "MEADOWLARK LN", "unit": "", "city": "LAKE OSWEGO", "district": "", "region": "", "postcode": "97034", "id": ""}, "geometry": {"type": "Point", "coordinates": [-122.6977674, 45.3967045]}}